0 CZ-4B R/B
1 38039U 11079B   13282.47145067  .00001588  00000-0  13372-3 0  5774
2 38039 098.4427 042.2654 0202879 054.6665 004.4082 14.85301835 97464
0 CZ-4B R/B
1 38039U 11079B   13284.03491510  .00001696  00000-0  14239-3 0  5789
2 38039 098.4430 043.9231 0202793 049.6295 084.3669 14.85305188 97693
0 CZ-4B R/B
1 38039U 11079B   13285.43207095  .00001588  00000-0  13370-3 0  5793
2 38039 098.4424 045.4046 0202808 045.0987 355.1259 14.85308639 97904
0 CZ-4B R/B
1 38039U 11079B   13286.44288013  .00001840  00000-0  15401-3 0  5804
2 38039 098.4426 046.4765 0202723 041.8466 000.0340 14.85310518 98050
0 CZ-4B R/B
1 38039U 11079B   13287.80446216  .00002736  00000-0  22581-3 0  5819
2 38039 098.4432 047.9205 0202622 037.4752 080.5647 14.85316383 98250
0 CZ-4B R/B
1 38039U 11079B   13288.81457552  .00002502  00000-0  20714-3 0  5824
2 38039 098.4436 048.9918 0202554 034.2315 081.7740 14.85323017 98406
0 CZ-4B R/B
1 38039U 11079B   13289.82460892  .00002563  00000-0  21205-3 0  5831
2 38039 098.4438 050.0630 0202481 030.9893 082.5743 14.85329084 98554
0 CZ-4B R/B
1 38039U 11079B   13290.97045890  .00002036  00000-0  16986-3 0  5842
2 38039 098.4440 051.2783 0202386 027.2970 089.6467 14.85334106 98729
0 CZ-4B R/B
1 38039U 11079B   13292.30539803  .00002158  00000-0  17967-3 0  5859
2 38039 098.4441 052.6943 0202296 022.9777 027.8629 14.85337431 98920
0 CZ-4B R/B
1 38039U 11079B   13293.31595999  .00002653  00000-0  21947-3 0  5863
2 38039 098.4442 053.7666 0202206 019.7157 031.5698 14.85339647 99078
0 CZ-4B R/B
1 38039U 11079B   13294.32155968  .00002867  00000-0  23674-3 0  5870
2 38039 098.4441 054.8335 0202090 016.4848 008.7337 14.85343385 99221
0 CZ-4B R/B
1 38039U 11079B   13295.33799981  .00002985  00000-0  24628-3 0  5883
2 38039 098.4441 055.9117 0202005 013.2150 043.8810 14.85348401 99374
